{
  "norad_id": 68352,
  "name": "CENTISPACE-1 OBJECT C",
  "history": [
    {
      "epoch": "2026-03-28T20:54:19.562400",
      "apogee_km": 653.6456662532892,
      "perigee_km": 635.9783143962895,
      "latitude_deg": -53.76728041667739,
      "longitude_deg": 18.821736000012606,
      "semi_major_axis_km": 7022.9489903247895,
      "eccentricity": 0.00125783,
      "inclination_deg": 54.9833,
      "raan_deg": 3.3646,
      "arg_perigee_deg": 314.7166,
      "mean_anomaly_deg": 45.2808,
      "mean_motion_rev_day": 14.75106888
    }
  ]
}